HULIANWANG DIGUI-121    
1 67061U 25295C   26058.81719489 -.00000065  00000+0  98747-4 0  9991
2 67061  50.0003  59.6746 0000618 208.9773 151.1076 13.55341540 10922
HULIANWANG DIGUI-122    
1 67062U 25295D   26058.80490248 -.00000065  00000+0  97414-4 0  9990
2 67062  50.0039  59.6390 0000516 266.8562  93.2262 13.55810439 10924
HULIANWANG DIGUI-123    
1 67063U 25295E   26058.94496277 -.00000047  00000+0  12419-3 0  9995
2 67063  50.0076  59.0604 0000596 341.5193  18.5669 13.55672097 10946
HULIANWANG DIGUI-124    
1 67064U 25295F   26058.93989575 -.00000062  00000+0  10199-3 0  9993
2 67064  50.0056  58.9996 0002818 334.3403  25.7340 13.56012663 10944
HULIANWANG DIGUI-125    
1 67065U 25295G   26058.93340375 -.00000063  00000+0  99820-4 0  9993
2 67065  49.9979  58.9409 0001185 109.6882 250.4129 13.55961814 10947
HULIANWANG DIGUI-126    
1 67066U 25295H   26058.92603451 -.00000081  00000+0  74483-4 0  9998
2 67066  49.9948  58.9067 0001486  73.2938 286.8109 13.55947527 10942
HULIANWANG DIGUI-127    
1 67067U 25295J   26058.76792823 -.00000307  00000+0 -24677-3 0  9994
2 67067  49.9999  59.4283 0001707  77.2348 282.8727 13.55955398 10925
HULIANWANG DIGUI-128    
1 67236U 25311A   26058.53870944 -.00000087  00000+0  75070-4 0  9995
2 67236  50.0077 149.0958 0000451 326.6542  33.4307 13.40531923  8750
HULIANWANG DIGUI-129    
1 67237U 25311B   26058.62015318 -.00000089  00000+0  71528-4 0  9998
2 67237  50.0091 148.8518 0001256 301.3829  58.6924 13.40155878  8764
HULIANWANG DIGUI-130    
1 67238U 25311C   26058.66261313 -.00000084  00000+0  79842-4 0  9993
2 67238  50.0046 149.0558 0001111 325.0633  35.0171 13.38963774  8760
HULIANWANG DIGUI-131    
1 67239U 25311D   26058.29707351 -.00000091  00000+0  67155-4 0  9992
2 67239  49.9988 150.4459 0001337 266.8276  93.2447 13.39696818  8714
HULIANWANG DIGUI-132    
1 67240U 25311E   26058.64819985 -.00000087  00000+0  74382-4 0  9995
2 67240  50.0027 148.9802 0002201 358.5349   1.5521 13.39327664  8768
HULIANWANG DIGUI-133    
1 67241U 25311F   26057.66502016 -.00000080  00000+0  85967-4 0  9995
2 67241  50.0235 152.5026 0001722  22.2578 337.8374 13.41034422  8632
HULIANWANG DIGUI-134    
1 67242U 25311G   26058.64138473 -.00000081  00000+0  86436-4 0  9990
2 67242  50.0022 148.9344 0000692  67.3913 292.7037 13.39512709  8762
HULIANWANG DIGUI-135    
1 67243U 25311H   26058.73010203 -.00000086  00000+0  76921-4 0  9994
2 67243  50.0250 148.7352 0004314 282.6682  77.3712 13.39320487  8771
HULIANWANG DIGUI-136    
1 67244U 25311J   26058.62698527 -.00000083  00000+0  81478-4 0  9994
2 67244  50.0081 148.8973 0000926 323.9414  36.1400 13.39923810  8766
HULIANWANG DIGUI-137    
1 67435U 26007A   26059.69668808 -.00000046  00000+0  13714-3 0  9992
2 67435  50.0071 115.7615 0001169  59.0000 301.0995 13.47627034  6344
HULIANWANG DIGUI-138    
1 67436U 26007B   26059.48646786 -.00000048  00000+0  13415-3 0  9991
2 67436  50.0113 116.6543 0004856 173.7650 186.3291 13.47462673  6319
HULIANWANG DIGUI-139    
1 67437U 26007C   26060.07379646 -.00000028  00000+0  16707-3 0  9992
2 67437  50.0014 114.3987 0000754  62.4317 297.6639 13.47209372  6399
HULIANWANG DIGUI-140    
1 67438U 26007D   26059.49299633 -.00000035  00000+0  15632-3 0  9998
2 67438  50.0110 116.6876 0004608 178.5616 181.5278 13.47190736  6317
HULIANWANG DIGUI-141    
1 67439U 26007E   26060.06110031 -.00000040  00000+0  14638-3 0  9999
2 67439  50.0040 114.3424 0000443  73.1709 286.9220 13.47595026  6396
HULIANWANG DIGUI-142    
1 67440U 26007F   26059.61011250 -.00000123  00000+0  12098-4 0  9994
2 67440  50.0035 115.9923 0001971 209.6639 150.4130 13.47919319  6332
HULIANWANG DIGUI-143    
1 67441U 26007G   26059.60369912 -.00000044  00000+0  13990-3 0  9998
2 67441  50.0035 115.9473 0002654 224.4086 135.6581 13.48012339  6335
HULIANWANG DIGUI-144    
1 67442U 26007H   26059.67173005 -.00000052  00000+0  12739-3 0  9991
2 67442  50.0296 115.5876 0002073 237.4762 122.5918 13.48237741  6344
HULIANWANG DIGUI-145    
1 67443U 26007J   26059.59136216 -.00000040  00000+0  14618-3 0  9991
2 67443  50.0082 115.8806 0002006 337.9638  22.1156 13.48483859  6339
